[{"OBJECT_NAME":"STARLINK-30503","OBJECT_ID":"2023-151M","EPOCH":"2026-03-09T04:12:32.982336","MEAN_MOTION":15.27599044,"ECCENTRICITY":0.00020611,"INCLINATION":43.0027,"RA_OF_ASC_NODE":339.2227,"ARG_OF_PERICENTER":264.9376,"MEAN_ANOMALY":95.1241,"EPHEMERIS_TYPE":0,"CLASSIFICATION_TYPE":"U","NORAD_CAT_ID":57975,"ELEMENT_SET_NO":999,"REV_AT_EPOCH":13568,"BSTAR":-0.0005000993,"MEAN_MOTION_DOT":-0.00014007,"MEAN_MOTION_DDOT":0},{"OBJECT_NAME":"OKEAN-1","OBJECT_ID":"1988-056A","EPOCH":"2026-03-09T21:19:04.260000","MEAN_MOTION":15.31672069,"ECCENTRICITY":0.00129431,"INCLINATION":82.4671,"RA_OF_ASC_NODE":262.7586,"ARG_OF_PERICENTER":168.0696,"MEAN_ANOMALY":192.0855,"EPHEMERIS_TYPE":0,"CLASSIFICATION_TYPE":"U","NORAD_CAT_ID":19274,"ELEMENT_SET_NO":999,"REV_AT_EPOCH":3511,"BSTAR":0.00038371192,"MEAN_MOTION_DOT":0.00011798,"MEAN_MOTION_DDOT":0}]
